{
  "type": "FeatureCollection",
  "features": [
    {
      "type": "Feature",
      "properties": {
        "norad_id": 42917,
        "name": "QZS-3 (QZSS/PRN 199)",
        "group": "gnss",
        "lat": -0.04078867179940342,
        "lon": 169.45506768709066,
        "alt_km": 35786.54506668548,
        "timestamp": "2025-12-09T21:34:11.649974+00:00",
        "meta_object_name": "QZS-3 (QZSS/PRN 199)",
        "meta_object_id": "2017-048A",
        "meta_epoch": "2025-12-09T12:27:51.553152",
        "meta_mean_motion": 1.00273344,
        "meta_eccentricity": 0.00021464,
        "meta_inclination": 0.0633,
        "meta_ra_of_asc_node": 204.8722,
        "meta_arg_of_pericenter": 59.9144,
        "meta_mean_anomaly": 127.7365,
        "meta_ephemeris_type": 0,
        "meta_classification_type": "U",
        "meta_norad_cat_id": 42917,
        "meta_element_set_no": 999,
        "meta_rev_at_epoch": 3035,
        "meta_bstar": 0,
        "meta_mean_motion_dot": -3.45e-06,
        "meta_mean_motion_ddot": 0,
        "tle_line1": "1 42917U 17048A   25343.51934668 -.00000345  00000+0  00000+0 0  9993",
        "tle_line2": "2 42917   0.0633 204.8722 0002146  59.9144 127.7365  1.00273344 30353"
      },
      "geometry": {
        "type": "Point",
        "coordinates": [
          169.45506768709066,
          -0.04078867179940342
        ]
      }
    },
    {
      "type": "Feature",
      "properties": {
        "norad_id": 42939,
        "name": "COSMOS 2522 (752)",
        "group": "gnss",
        "lat": -63.84937965260813,
        "lon": 116.14577970775248,
        "alt_km": 19125.486050300773,
        "timestamp": "2025-12-09T21:34:11.649986+00:00",
        "meta_object_name": "COSMOS 2522 (752)",
        "meta_object_id": "2017-055A",
        "meta_epoch": "2025-12-08T03:13:49.063296",
        "meta_mean_motion": 2.13101881,
        "meta_eccentricity": 0.00064484,
        "meta_inclination": 64.0758,
        "meta_ra_of_asc_node": 198.386,
        "meta_arg_of_pericenter": 225.1717,
        "meta_mean_anomaly": 134.8539,
        "meta_ephemeris_type": 0,
        "meta_classification_type": "U",
        "meta_norad_cat_id": 42939,
        "meta_element_set_no": 999,
        "meta_rev_at_epoch": 6390,
        "meta_bstar": 0,
        "meta_mean_motion_dot": 5.1e-07,
        "meta_mean_motion_ddot": 0,
        "tle_line1": "1 42939U 17055A   25342.13459564  .00000051  00000+0  00000+0 0  9992",
        "tle_line2": "2 42939  64.0758 198.3860 0006448 225.1717 134.8539  2.13101881 63907"
      },
      "geometry": {
        "type": "Point",
        "coordinates": [
          116.14577970775248,
          -63.84937965260813
        ]
      }
    },
    {
      "type": "Feature",
      "properties": {
        "norad_id": 42965,
        "name": "QZS-4 (QZSS/PRN 195)",
        "group": "gnss",
        "lat": -2.9497926898582274,
        "lon": 169.39277684977415,
        "alt_km": 35382.38116691163,
        "timestamp": "2025-12-09T21:34:11.649997+00:00",
        "meta_object_name": "QZS-4 (QZSS/PRN 195)",
        "meta_object_id": "2017-062A",
        "meta_epoch": "2025-12-09T13:25:49.268928",
        "meta_mean_motion": 1.00253406,
        "meta_eccentricity": 0.07522355,
        "meta_inclination": 40.2274,
        "meta_ra_of_asc_node": 345.9105,
        "meta_arg_of_pericenter": 271.4771,
        "meta_mean_anomaly": 159.2733,
        "meta_ephemeris_type": 0,
        "meta_classification_type": "U",
        "meta_norad_cat_id": 42965,
        "meta_element_set_no": 999,
        "meta_rev_at_epoch": 2990,
        "meta_bstar": 0,
        "meta_mean_motion_dot": -3.56e-06,
        "meta_mean_motion_ddot": 0,
        "tle_line1": "1 42965U 17062A   25343.55959802 -.00000356  00000+0  00000+0 0  9995",
        "tle_line2": "2 42965  40.2274 345.9105 0752235 271.4771 159.2733  1.00253406 29908"
      },
      "geometry": {
        "type": "Point",
        "coordinates": [
          169.39277684977415,
          -2.9497926898582274
        ]
      }
    },
    {
      "type": "Feature",
      "properties": {
        "norad_id": 43001,
        "name": "BEIDOU-3 M1 (C19)",
        "group": "gnss",
        "lat": -23.29161303782664,
        "lon": -94.13700262811666,
        "alt_km": 21533.660126465602,
        "timestamp": "2025-12-09T21:34:11.650008+00:00",
        "meta_object_name": "BEIDOU-3 M1 (C19)",
        "meta_object_id": "2017-069A",
        "meta_epoch": "2025-12-09T14:06:31.413312",
        "meta_mean_motion": 1.8623096,
        "meta_eccentricity": 0.00090283,
        "meta_inclination": 56.5248,
        "meta_ra_of_asc_node": 69.3379,
        "meta_arg_of_pericenter": 303.8833,
        "meta_mean_anomaly": 56.0533,
        "meta_ephemeris_type": 0,
        "meta_classification_type": "U",
        "meta_norad_cat_id": 43001,
        "meta_element_set_no": 999,
        "meta_rev_at_epoch": 5507,
        "meta_bstar": 0,
        "meta_mean_motion_dot": -4.9e-07,
        "meta_mean_motion_ddot": 0,
        "tle_line1": "1 43001U 17069A   25343.58786358 -.00000049  00000+0  00000+0 0  9990",
        "tle_line2": "2 43001  56.5248  69.3379 0009028 303.8833  56.0533  1.86230960 55078"
      },
      "geometry": {
        "type": "Point",
        "coordinates": [
          -94.13700262811666,
          -23.29161303782664
        ]
      }
    },
    {
      "type": "Feature",
      "properties": {
        "norad_id": 43002,
        "name": "BEIDOU-3 M2 (C20)",
        "group": "gnss",
        "lat": -51.48226550402667,
        "lon": -54.50779400177069,
        "alt_km": 21531.650136576704,
        "timestamp": "2025-12-09T21:34:11.650021+00:00",
        "meta_object_name": "BEIDOU-3 M2 (C20)",
        "meta_object_id": "2017-069B",
        "meta_epoch": "2025-12-09T12:37:45.820128",
        "meta_mean_motion": 1.8623055,
        "meta_eccentricity": 0.00062541,
        "meta_inclination": 56.5238,
        "meta_ra_of_asc_node": 69.3764,
        "meta_arg_of_pericenter": 332.6094,
        "meta_mean_anomaly": 27.38,
        "meta_ephemeris_type": 0,
        "meta_classification_type": "U",
        "meta_norad_cat_id": 43002,
        "meta_element_set_no": 999,
        "meta_rev_at_epoch": 5506,
        "meta_bstar": 0,
        "meta_mean_motion_dot": -4.8e-07,
        "meta_mean_motion_ddot": 0,
        "tle_line1": "1 43002U 17069B   25343.52622477 -.00000048  00000+0  00000+0 0  9995",
        "tle_line2": "2 43002  56.5238  69.3764 0006254 332.6094  27.3800  1.86230550 55065"
      },
      "geometry": {
        "type": "Point",
        "coordinates": [
          -54.50779400177069,
          -51.48226550402667
        ]
      }
    },
    {
      "type": "Feature",
      "properties": {
        "norad_id": 43055,
        "name": "GSAT0215 (GALILEO 19)",
        "group": "gnss",
        "lat": -27.460030492759337,
        "lon": 67.95058223164581,
        "alt_km": 23228.12795627119,
        "timestamp": "2025-12-09T21:34:11.650033+00:00",
        "meta_object_name": "GSAT0215 (GALILEO 19)",
        "meta_object_id": "2017-079A",
        "meta_epoch": "2025-12-07T04:52:59.598912",
        "meta_mean_motion": 1.70473814,
        "meta_eccentricity": 0.000129,
        "meta_inclination": 55.132,
        "meta_ra_of_asc_node": 226.7904,
        "meta_arg_of_pericenter": 342.2986,
        "meta_mean_anomaly": 17.7924,
        "meta_ephemeris_type": 0,
        "meta_classification_type": "U",
        "meta_norad_cat_id": 43055,
        "meta_element_set_no": 999,
        "meta_rev_at_epoch": 4971,
        "meta_bstar": 0,
        "meta_mean_motion_dot": 2.6e-07,
        "meta_mean_motion_ddot": 0,
        "tle_line1": "1 43055U 17079A   25341.20346758  .00000026  00000+0  00000+0 0  9997",
        "tle_line2": "2 43055  55.1320 226.7904 0001290 342.2986  17.7924  1.70473814 49717"
      },
      "geometry": {
        "type": "Point",
        "coordinates": [
          67.95058223164581,
          -27.460030492759337
        ]
      }
    },
    {
      "type": "Feature",
      "properties": {
        "norad_id": 43056,
        "name": "GSAT0216 (GALILEO 20)",
        "group": "gnss",
        "lat": 28.39015222903229,
        "lon": -111.15659734760833,
        "alt_km": 23217.053874058773,
        "timestamp": "2025-12-09T21:34:11.650044+00:00",
        "meta_object_name": "GSAT0216 (GALILEO 20)",
        "meta_object_id": "2017-079B",
        "meta_epoch": "2025-12-08T01:57:06.766848",
        "meta_mean_motion": 1.70473892,
        "meta_eccentricity": 0.00025149,
        "meta_inclination": 55.132,
        "meta_ra_of_asc_node": 226.7661,
        "meta_arg_of_pericenter": 318.3772,
        "meta_mean_anomaly": 41.6956,
        "meta_ephemeris_type": 0,
        "meta_classification_type": "U",
        "meta_norad_cat_id": 43056,
        "meta_element_set_no": 999,
        "meta_rev_at_epoch": 4974,
        "meta_bstar": 0,
        "meta_mean_motion_dot": 1.9e-07,
        "meta_mean_motion_ddot": 0,
        "tle_line1": "1 43056U 17079B   25342.08132832  .00000019  00000+0  00000+0 0  9993",
        "tle_line2": "2 43056  55.1320 226.7661 0002514 318.3772  41.6956  1.70473892 49745"
      },
      "geometry": {
        "type": "Point",
        "coordinates": [
          -111.15659734760833,
          28.39015222903229
        ]
      }
    }
  ]
}